[{"OBJECT_NAME":"STARLINK-34742","OBJECT_ID":"2025-158L","EPOCH":"2026-03-09T14:02:40.949952","MEAN_MOTION":15.05647543,"ECCENTRICITY":0.0001681,"INCLINATION":97.602,"RA_OF_ASC_NODE":294.03,"ARG_OF_PERICENTER":73.6791,"MEAN_ANOMALY":286.4621,"EPHEMERIS_TYPE":0,"CLASSIFICATION_TYPE":"U","NORAD_CAT_ID":64942,"ELEMENT_SET_NO":999,"REV_AT_EPOCH":3534,"BSTAR":7.4236e-5,"MEAN_MOTION_DOT":1.01e-5,"MEAN_MOTION_DDOT":0},{"OBJECT_NAME":"PEGASUS DEB","OBJECT_ID":"1994-029BC","EPOCH":"2026-03-09T22:00:19.479168","MEAN_MOTION":15.02669201,"ECCENTRICITY":0.00619411,"INCLINATION":81.9229,"RA_OF_ASC_NODE":10.1044,"ARG_OF_PERICENTER":202.7728,"MEAN_ANOMALY":222.9696,"EPHEMERIS_TYPE":0,"CLASSIFICATION_TYPE":"U","NORAD_CAT_ID":24007,"ELEMENT_SET_NO":999,"REV_AT_EPOCH":60998,"BSTAR":0.00034526552,"MEAN_MOTION_DOT":4.826e-5,"MEAN_MOTION_DDOT":0}]
